[{"OBJECT_NAME":"STARLINK-36311","OBJECT_ID":"2026-068T","EPOCH":"2026-04-24T16:16:26.226048","MEAN_MOTION":15.80970511,"ECCENTRICITY":5.867e-5,"INCLINATION":53.1568,"RA_OF_ASC_NODE":278.6943,"ARG_OF_PERICENTER":358.4216,"MEAN_ANOMALY":1.6804,"EPHEMERIS_TYPE":0,"CLASSIFICATION_TYPE":"U","NORAD_CAT_ID":68525,"ELEMENT_SET_NO":999,"REV_AT_EPOCH":394,"BSTAR":0.0010744865,"MEAN_MOTION_DOT":0.00217784,"MEAN_MOTION_DDOT":0},{"OBJECT_NAME":"STARLINK-37178","OBJECT_ID":"2026-068U","EPOCH":"2026-04-26T22:00:00.999936","MEAN_MOTION":15.66436363,"ECCENTRICITY":8.583e-5,"INCLINATION":53.1591,"RA_OF_ASC_NODE":267.6272,"ARG_OF_PERICENTER":68.4237,"MEAN_ANOMALY":5.0959,"EPHEMERIS_TYPE":0,"CLASSIFICATION_TYPE":"U","NORAD_CAT_ID":68526,"ELEMENT_SET_NO":999,"REV_AT_EPOCH":556,"BSTAR":-0.026170261,"MEAN_MOTION_DOT":-0.0243053,"MEAN_MOTION_DDOT":0},{"OBJECT_NAME":"STARLINK-37248","OBJECT_ID":"2026-068V","EPOCH":"2026-04-24T16:15:21.632544","MEAN_MOTION":15.80957779,"ECCENTRICITY":9.301e-5,"INCLINATION":53.1563,"RA_OF_ASC_NODE":278.6902,"ARG_OF_PERICENTER":58.0104,"MEAN_ANOMALY":302.1009,"EPHEMERIS_TYPE":0,"CLASSIFICATION_TYPE":"U","NORAD_CAT_ID":68527,"ELEMENT_SET_NO":999,"REV_AT_EPOCH":394,"BSTAR":0.0011865241,"MEAN_MOTION_DOT":0.00241079,"MEAN_MOTION_DDOT":0},{"OBJECT_NAME":"STARLINK-37241","OBJECT_ID":"2026-068W","EPOCH":"2026-04-25T08:00:01.999872","MEAN_MOTION":15.80875049,"ECCENTRICITY":9.374e-5,"INCLINATION":53.1564,"RA_OF_ASC_NODE":275.3843,"ARG_OF_PERICENTER":97.342,"MEAN_ANOMALY":47.001,"EPHEMERIS_TYPE":0,"CLASSIFICATION_TYPE":"U","NORAD_CAT_ID":68528,"ELEMENT_SET_NO":999,"REV_AT_EPOCH":531,"BSTAR":-0.00010082228,"MEAN_MOTION_DOT":-0.00020552,"MEAN_MOTION_DDOT":0},{"OBJECT_NAME":"STARLINK-37244","OBJECT_ID":"2026-068X","EPOCH":"2026-04-26T22:00:00.999936","MEAN_MOTION":15.66201037,"ECCENTRICITY":9.276e-5,"INCLINATION":53.1591,"RA_OF_ASC_NODE":267.6032,"ARG_OF_PERICENTER":62.9887,"MEAN_ANOMALY":21.9441,"EPHEMERIS_TYPE":0,"CLASSIFICATION_TYPE":"U","NORAD_CAT_ID":68529,"ELEMENT_SET_NO":999,"REV_AT_EPOCH":556,"BSTAR":-0.026555536,"MEAN_MOTION_DOT":-0.02441283,"MEAN_MOTION_DDOT":0},{"OBJECT_NAME":"STARLINK-36285","OBJECT_ID":"2026-068Y","EPOCH":"2026-04-23T17:26:35.047392","MEAN_MOTION":15.80981032,"ECCENTRICITY":8.21e-5,"INCLINATION":53.1575,"RA_OF_ASC_NODE":283.4276,"ARG_OF_PERICENTER":61.6882,"MEAN_ANOMALY":298.4224,"EPHEMERIS_TYPE":0,"CLASSIFICATION_TYPE":"U","NORAD_CAT_ID":68530,"ELEMENT_SET_NO":999,"REV_AT_EPOCH":379,"BSTAR":0.0011807423,"MEAN_MOTION_DOT":0.00240132,"MEAN_MOTION_DDOT":0},{"OBJECT_NAME":"STARLINK-36294","OBJECT_ID":"2026-068Z","EPOCH":"2026-04-26T22:00:00.999936","MEAN_MOTION":15.745556,"ECCENTRICITY":0.00010266,"INCLINATION":53.1594,"RA_OF_ASC_NODE":267.4664,"ARG_OF_PERICENTER":54.584,"MEAN_ANOMALY":97.2829,"EPHEMERIS_TYPE":0,"CLASSIFICATION_TYPE":"U","NORAD_CAT_ID":68531,"ELEMENT_SET_NO":999,"REV_AT_EPOCH":551,"BSTAR":-0.014584684,"MEAN_MOTION_DOT":-0.01889311,"MEAN_MOTION_DDOT":0},{"OBJECT_NAME":"STARLINK-36249","OBJECT_ID":"2026-068AA","EPOCH":"2026-04-26T22:00:00.999936","MEAN_MOTION":15.66157257,"ECCENTRICITY":0.00011008,"INCLINATION":53.1592,"RA_OF_ASC_NODE":267.5575,"ARG_OF_PERICENTER":54.765,"MEAN_ANOMALY":51.9612,"EPHEMERIS_TYPE":0,"CLASSIFICATION_TYPE":"U","NORAD_CAT_ID":68532,"ELEMENT_SET_NO":999,"REV_AT_EPOCH":551,"BSTAR":-0.027033476,"MEAN_MOTION_DOT":-0.02475865,"MEAN_MOTION_DDOT":0},{"OBJECT_NAME":"STARLINK-36252","OBJECT_ID":"2026-068AB","EPOCH":"2026-04-23T17:24:24.984288","MEAN_MOTION":15.80995437,"ECCENTRICITY":5.787e-5,"INCLINATION":53.1576,"RA_OF_ASC_NODE":283.4169,"ARG_OF_PERICENTER":58.1084,"MEAN_ANOMALY":301.9995,"EPHEMERIS_TYPE":0,"CLASSIFICATION_TYPE":"U","NORAD_CAT_ID":68533,"ELEMENT_SET_NO":999,"REV_AT_EPOCH":379,"BSTAR":0.0015334829,"MEAN_MOTION_DOT":0.00315051,"MEAN_MOTION_DDOT":0},{"OBJECT_NAME":"STARLINK-36299","OBJECT_ID":"2026-068AC","EPOCH":"2026-04-24T16:07:47.570304","MEAN_MOTION":15.80974674,"ECCENTRICITY":0.00014144,"INCLINATION":53.1572,"RA_OF_ASC_NODE":278.6533,"ARG_OF_PERICENTER":146.9952,"MEAN_ANOMALY":213.1159,"EPHEMERIS_TYPE":0,"CLASSIFICATION_TYPE":"U","NORAD_CAT_ID":68534,"ELEMENT_SET_NO":999,"REV_AT_EPOCH":394,"BSTAR":0.0010277525,"MEAN_MOTION_DOT":0.00208082,"MEAN_MOTION_DDOT":0},{"OBJECT_NAME":"STARLINK-37234","OBJECT_ID":"2026-068AD","EPOCH":"2026-04-23T23:24:14.092704","MEAN_MOTION":15.80977096,"ECCENTRICITY":8.518e-5,"INCLINATION":53.1568,"RA_OF_ASC_NODE":282.1289,"ARG_OF_PERICENTER":67.4663,"MEAN_ANOMALY":292.6449,"EPHEMERIS_TYPE":0,"CLASSIFICATION_TYPE":"U","NORAD_CAT_ID":68535,"ELEMENT_SET_NO":999,"REV_AT_EPOCH":383,"BSTAR":0.0012810898,"MEAN_MOTION_DOT":0.00261197,"MEAN_MOTION_DDOT":0},{"OBJECT_NAME":"STARLINK-37173","OBJECT_ID":"2026-068AE","EPOCH":"2026-04-24T17:36:45.669024","MEAN_MOTION":15.80254152,"ECCENTRICITY":0.00017728,"INCLINATION":53.157,"RA_OF_ASC_NODE":278.3275,"ARG_OF_PERICENTER":148.73,"MEAN_ANOMALY":211.3828,"EPHEMERIS_TYPE":0,"CLASSIFICATION_TYPE":"U","NORAD_CAT_ID":68536,"ELEMENT_SET_NO":999,"REV_AT_EPOCH":395,"BSTAR":-0.0038268196,"MEAN_MOTION_DOT":-0.00679807,"MEAN_MOTION_DDOT":0},{"OBJECT_NAME":"SWC-1","OBJECT_ID":"2026-069C","EPOCH":"2026-04-17T12:14:33.921312","MEAN_MOTION":1.01840683,"ECCENTRICITY":0.8357664,"INCLINATION":28.3533,"RA_OF_ASC_NODE":357.7706,"ARG_OF_PERICENTER":80.9928,"MEAN_ANOMALY":279.0715,"EPHEMERIS_TYPE":0,"CLASSIFICATION_TYPE":"U","NORAD_CAT_ID":68540,"ELEMENT_SET_NO":999,"REV_AT_EPOCH":16,"BSTAR":0,"MEAN_MOTION_DOT":-3.51e-6,"MEAN_MOTION_DDOT":0},{"OBJECT_NAME":"STARLINK-37326","OBJECT_ID":"2026-070A","EPOCH":"2026-04-25T22:05:17.735424","MEAN_MOTION":15.80974774,"ECCENTRICITY":0.00017395,"INCLINATION":53.1576,"RA_OF_ASC_NODE":147.6851,"ARG_OF_PERICENTER":109.4508,"MEAN_ANOMALY":250.6703,"EPHEMERIS_TYPE":0,"CLASSIFICATION_TYPE":"U","NORAD_CAT_ID":68542,"ELEMENT_SET_NO":999,"REV_AT_EPOCH":372,"BSTAR":0.0014180905,"MEAN_MOTION_DOT":0.00290152,"MEAN_MOTION_DDOT":0},{"OBJECT_NAME":"STARLINK-36308","OBJECT_ID":"2026-070B","EPOCH":"2026-04-25T19:02:07.428192","MEAN_MOTION":15.80923997,"ECCENTRICITY":0.00012368,"INCLINATION":53.1579,"RA_OF_ASC_NODE":148.3129,"ARG_OF_PERICENTER":63.5558,"MEAN_ANOMALY":296.5591,"EPHEMERIS_TYPE":0,"CLASSIFICATION_TYPE":"U","NORAD_CAT_ID":68543,"ELEMENT_SET_NO":999,"REV_AT_EPOCH":370,"BSTAR":0.0012972968,"MEAN_MOTION_DOT":0.00263945,"MEAN_MOTION_DDOT":0},{"OBJECT_NAME":"STARLINK-37263","OBJECT_ID":"2026-070C","EPOCH":"2026-04-25T18:58:53.180256","MEAN_MOTION":15.80997544,"ECCENTRICITY":0.00020317,"INCLINATION":53.1574,"RA_OF_ASC_NODE":148.2977,"ARG_OF_PERICENTER":61.0785,"MEAN_ANOMALY":299.0442,"EPHEMERIS_TYPE":0,"CLASSIFICATION_TYPE":"U","NORAD_CAT_ID":68544,"ELEMENT_SET_NO":999,"REV_AT_EPOCH":370,"BSTAR":0.0015472451,"MEAN_MOTION_DOT":0.00318012,"MEAN_MOTION_DDOT":0}]
